{"type": "FeatureCollection", "features": [ {"type": "Feature", "properties": {"norad_id": 38487, "name": "COSMOS 2251 DEB", "group": "cosmos-2251-debris", "lat": -28.450583760047472, "lon": -133.2963394752736, "alt_km": 505.1987202872506, "timestamp": "2025-12-10T20:49:52.950812+00:00", "meta": {"OBJECT_NAME": "COSMOS 2251 DEB", "OBJECT_ID": "1993-036BTX", "EPOCH": "2025-12-10T10:24:49.677120", "MEAN_MOTION": 15.17046489, "ECCENTRICITY": 0.00217125, "INCLINATION": 73.9735, "RA_OF_ASC_NODE": 38.6522, "ARG_OF_PERICENTER": 210.3514, "MEAN_ANOMALY": 149.6426, "EPHEMERIS_TYPE": 0, "CLASSIFICATION_TYPE": "U", "NORAD_CAT_ID": 38487, "ELEMENT_SET_NO": 999, "REV_AT_EPOCH": 66765, "BSTAR": 0.0029648595, "MEAN_MOTION_DOT": 0.00059478, "MEAN_MOTION_DDOT": 0}, "tle": {"line1": "1 38487U 93036BTX 25344.43390830  .00059478  00000+0  29649-2 0  9993", "line2": "2 38487  73.9735  38.6522 0021712 210.3514 149.6426 15.17046489667658"}}, "geometry": {"type": "Point", "coordinates": [-133.2963394752736, -28.450583760047472]}}, {"type": "Feature", "properties": {"norad_id": 39109, "name": "COSMOS 2251 DEB", "group": "cosmos-2251-debris", "lat": 73.19248534815502, "lon": -59.97994054062767, "alt_km": 666.9952910154916, "timestamp": "2025-12-10T20:49:52.950822+00:00", "meta": {"OBJECT_NAME": "COSMOS 2251 DEB", "OBJECT_ID": "1993-036BTY", "EPOCH": "2025-12-09T10:58:18.988608", "MEAN_MOTION": 14.70683686, "ECCENTRICITY": 0.00592583, "INCLINATION": 74.0426, "RA_OF_ASC_NODE": 231.4464, "ARG_OF_PERICENTER": 335.6145, "MEAN_ANOMALY": 202.0339, "EPHEMERIS_TYPE": 0, "CLASSIFICATION_TYPE": "U", "NORAD_CAT_ID": 39109, "ELEMENT_SET_NO": 999, "REV_AT_EPOCH": 65125, "BSTAR": 0.00089315049, "MEAN_MOTION_DOT": 5.561e-05, "MEAN_MOTION_DDOT": 0}, "tle": {"line1": "1 39109U 93036BTY 25343.45716422  .00005561  00000+0  89315-3 0  9996", "line2": "2 39109  74.0426 231.4464 0059258 335.6145 202.0339 14.70683686651254"}}, "geometry": {"type": "Point", "coordinates": [-59.97994054062767, 73.19248534815502]}}, {"type": "Feature", "properties": {"norad_id": 39110, "name": "COSMOS 2251 DEB", "group": "cosmos-2251-debris", "lat": -67.73007096260494, "lon": -70.20133923623294, "alt_km": 611.0882456734607, "timestamp": "2025-12-10T20:49:52.950832+00:00", "meta": {"OBJECT_NAME": "COSMOS 2251 DEB", "OBJECT_ID": "1993-036BTZ", "EPOCH": "2025-12-03T13:14:13.055136", "MEAN_MOTION": 14.72215365, "ECCENTRICITY": 0.00964609, "INCLINATION": 73.9598, "RA_OF_ASC_NODE": 79.4668, "ARG_OF_PERICENTER": 313.6965, "MEAN_ANOMALY": 59.6182, "EPHEMERIS_TYPE": 0, "CLASSIFICATION_TYPE": "U", "NORAD_CAT_ID": 39110, "ELEMENT_SET_NO": 999, "REV_AT_EPOCH": 62349, "BSTAR": 0.00066560445, "MEAN_MOTION_DOT": 4.484e-05, "MEAN_MOTION_DDOT": 0}, "tle": {"line1": "1 39110U 93036BTZ 25337.55153999  .00004484  00000+0  66560-3 0  9996", "line2": "2 39110  73.9598  79.4668 0096460 313.6965  59.6182 14.72215365623496"}}, "geometry": {"type": "Point", "coordinates": [-70.20133923623294, -67.73007096260494]}}, {"type": "Feature", "properties": {"norad_id": 39111, "name": "COSMOS 2251 DEB", "group": "cosmos-2251-debris", "lat": -73.4174940387921, "lon": -60.54783146774874, "alt_km": 534.7120926666375, "timestamp": "2025-12-10T20:49:52.950841+00:00", "meta": {"OBJECT_NAME": "COSMOS 2251 DEB", "OBJECT_ID": "1993-036BUA", "EPOCH": "2025-12-01T22:58:55.551360", "MEAN_MOTION": 15.11912111, "ECCENTRICITY": 0.00109111, "INCLINATION": 74.0059, "RA_OF_ASC_NODE": 63.5328, "ARG_OF_PERICENTER": 39.1207, "MEAN_ANOMALY": 321.0773, "EPHEMERIS_TYPE": 0, "CLASSIFICATION_TYPE": "U", "NORAD_CAT_ID": 39111, "ELEMENT_SET_NO": 999, "REV_AT_EPOCH": 8982, "BSTAR": 0.0056424119, "MEAN_MOTION_DOT": 0.00098096, "MEAN_MOTION_DDOT": 0}, "tle": {"line1": "1 39111U 93036BUA 25335.95758740  .00098096  00000+0  56424-2 0  9993", "line2": "2 39111  74.0059  63.5328 0010911  39.1207 321.0773 15.11912111 89826"}}, "geometry": {"type": "Point", "coordinates": [-60.54783146774874, -73.4174940387921]}}, {"type": "Feature", "properties": {"norad_id": 39546, "name": "COSMOS 2251 DEB", "group": "cosmos-2251-debris", "lat": 12.619385902472256, "lon": -43.124890247534374, "alt_km": 613.9433621528024, "timestamp": "2025-12-10T20:49:52.950851+00:00", "meta": {"OBJECT_NAME": "COSMOS 2251 DEB", "OBJECT_ID": "1993-036BUC", "EPOCH": "2025-12-10T03:59:23.245728", "MEAN_MOTION": 14.91933203, "ECCENTRICITY": 0.00440579, "INCLINATION": 73.9968, "RA_OF_ASC_NODE": 141.9703, "ARG_OF_PERICENTER": 302.2673, "MEAN_ANOMALY": 57.4244, "EPHEMERIS_TYPE": 0, "CLASSIFICATION_TYPE": "U", "NORAD_CAT_ID": 39546, "ELEMENT_SET_NO": 999, "REV_AT_EPOCH": 64398, "BSTAR": 0.0019195569, "MEAN_MOTION_DOT": 0.00019813, "MEAN_MOTION_DDOT": 0}, "tle": {"line1": "1 39546U 93036BUC 25344.16624127  .00019813  00000+0  19196-2 0  9994", "line2": "2 39546  73.9968 141.9703 0044057 302.2673  57.4244 14.91933203643980"}}, "geometry": {"type": "Point", "coordinates": [-43.124890247534374, 12.619385902472256]}}, {"type": "Feature", "properties": {"norad_id": 39547, "name": "COSMOS 2251 DEB", "group": "cosmos-2251-debris", "lat": 71.97277932913819, "lon": 84.05127110851959, "alt_km": 548.6417981990498, "timestamp": "2025-12-10T20:49:52.950861+00:00", "meta": {"OBJECT_NAME": "COSMOS 2251 DEB", "OBJECT_ID": "1993-036BUD", "EPOCH": "2025-12-08T21:19:55.077888", "MEAN_MOTION": 15.02877714, "ECCENTRICITY": 0.0005088, "INCLINATION": 74.0015, "RA_OF_ASC_NODE": 26.2621, "ARG_OF_PERICENTER": 23.5572, "MEAN_ANOMALY": 154.1498, "EPHEMERIS_TYPE": 0, "CLASSIFICATION_TYPE": "U", "NORAD_CAT_ID": 39547, "ELEMENT_SET_NO": 999, "REV_AT_EPOCH": 63967, "BSTAR": 0.002907, "MEAN_MOTION_DOT": 0.0003919, "MEAN_MOTION_DDOT": 0}, "tle": {"line1": "1 39547U 93036BUD 25342.88883192  .00039190  00000+0  29070-2 0  9993", "line2": "2 39547  74.0015  26.2621 0005088  23.5572 154.1498 15.02877714639676"}}, "geometry": {"type": "Point", "coordinates": [84.05127110851959, 71.97277932913819]}}, {"type": "Feature", "properties": {"norad_id": 39553, "name": "COSMOS 2251 DEB", "group": "cosmos-2251-debris", "lat": -45.00216069844585, "lon": 169.90159054899235, "alt_km": 965.9440373244506, "timestamp": "2025-12-10T20:49:52.950870+00:00", "meta": {"OBJECT_NAME": "COSMOS 2251 DEB", "OBJECT_ID": "1993-036BUK", "EPOCH": "2025-12-07T06:00:50.455872", "MEAN_MOTION": 13.99876591, "ECCENTRICITY": 0.02014092, "INCLINATION": 74.0304, "RA_OF_ASC_NODE": 339.5232, "ARG_OF_PERICENTER": 116.8065, "MEAN_ANOMALY": 245.3825, "EPHEMERIS_TYPE": 0, "CLASSIFICATION_TYPE": "U", "NORAD_CAT_ID": 39553, "ELEMENT_SET_NO": 999, "REV_AT_EPOCH": 75540, "BSTAR": 0.00088887208, "MEAN_MOTION_DOT": 1.532e-05, "MEAN_MOTION_DDOT": 0}, "tle": {"line1": "1 39553U 93036BUK 25341.25058398  .00001532  00000+0  88887-3 0  9993", "line2": "2 39553  74.0304 339.5232 0201409 116.8065 245.3825 13.99876591755403"}}, "geometry": {"type": "Point", "coordinates": [169.90159054899235, -45.00216069844585]}}, {"type": "Feature", "properties": {"norad_id": 39554, "name": "COSMOS 2251 DEB", "group": "cosmos-2251-debris", "lat": -46.666366563932876, "lon": 106.16281393873679, "alt_km": 543.8744098728866, "timestamp": "2025-12-10T20:49:52.950881+00:00", "meta": {"OBJECT_NAME": "COSMOS 2251 DEB", "OBJECT_ID": "1993-036BUL", "EPOCH": "2025-12-10T06:12:03.924864", "MEAN_MOTION": 15.10130993, "ECCENTRICITY": 0.0002993, "INCLINATION": 74.0187, "RA_OF_ASC_NODE": 269.7383, "ARG_OF_PERICENTER": 74.7531, "MEAN_ANOMALY": 81.5927, "EPHEMERIS_TYPE": 0, "CLASSIFICATION_TYPE": "U", "NORAD_CAT_ID": 39554, "ELEMENT_SET_NO": 999, "REV_AT_EPOCH": 64347, "BSTAR": 0.0046896, "MEAN_MOTION_DOT": 0.000773, "MEAN_MOTION_DDOT": 0}, "tle": {"line1": "1 39554U 93036BUL 25344.25837876  .00077300  00000+0  46896-2 0  9992", "line2": "2 39554  74.0187 269.7383 0002993  74.7531  81.5927 15.10130993643471"}}, "geometry": {"type": "Point", "coordinates": [106.16281393873679, -46.666366563932876]}}, {"type": "Feature", "properties": {"norad_id": 39583, "name": "COSMOS 2251 DEB", "group": "cosmos-2251-debris", "lat": -60.36529618456723, "lon": 101.2537879702738, "alt_km": 745.8031991219714, "timestamp": "2025-12-10T20:49:52.950890+00:00", "meta": {"OBJECT_NAME": "COSMOS 2251 DEB", "OBJECT_ID": "1993-036BUN", "EPOCH": "2025-12-08T00:17:58.189056", "MEAN_MOTION": 14.60283512, "ECCENTRICITY": 0.01370352, "INCLINATION": 73.9395, "RA_OF_ASC_NODE": 256.3131, "ARG_OF_PERICENTER": 10.5711, "MEAN_ANOMALY": 349.8282, "EPHEMERIS_TYPE": 0, "CLASSIFICATION_TYPE": "U", "NORAD_CAT_ID": 39583, "ELEMENT_SET_NO": 999, "REV_AT_EPOCH": 61710, "BSTAR": 0.0025519779, "MEAN_MOTION_DOT": 0.00014063, "MEAN_MOTION_DDOT": 0}, "tle": {"line1": "1 39583U 93036BUN 25342.01247904  .00014063  00000+0  25520-2 0  9991", "line2": "2 39583  73.9395 256.3131 0137035  10.5711 349.8282 14.60283512617104"}}, "geometry": {"type": "Point", "coordinates": [101.2537879702738, -60.36529618456723]}}, {"type": "Feature", "properties": {"norad_id": 39585, "name": "COSMOS 2251 DEB", "group": "cosmos-2251-debris", "lat": 72.73746593787119, "lon": 11.932812547962902, "alt_km": 645.8688912463003, "timestamp": "2025-12-10T20:49:52.950900+00:00", "meta": {"OBJECT_NAME": "COSMOS 2251 DEB", "OBJECT_ID": "1993-036BUQ", "EPOCH": "2025-12-09T14:49:35.322816", "MEAN_MOTION": 14.58655096, "ECCENTRICITY": 0.0065405, "INCLINATION": 74.0411, "RA_OF_ASC_NODE": 307.2584, "ARG_OF_PERICENTER": 69.0888, "MEAN_ANOMALY": 291.7262, "EPHEMERIS_TYPE": 0, "CLASSIFICATION_TYPE": "U", "NORAD_CAT_ID": 39585, "ELEMENT_SET_NO": 999, "REV_AT_EPOCH": 62475, "BSTAR": 0.00049693, "MEAN_MOTION_DOT": 2.356e-05, "MEAN_MOTION_DDOT": 0}, "tle": {"line1": "1 39585U 93036BUQ 25343.61776994  .00002356  00000+0  49693-3 0  9996", "line2": "2 39585  74.0411 307.2584 0065405  69.0888 291.7262 14.58655096624759"}}, "geometry": {"type": "Point", "coordinates": [11.932812547962902, 72.73746593787119]}}]}